OBJECT_NAME,OBJECT_ID,EPOCH,MEAN_MOTION,ECCENTRICITY,INCLINATION,RA_OF_ASC_NODE,ARG_OF_PERICENTER,MEAN_ANOMALY,EPHEMERIS_TYPE,CLASSIFICATION_TYPE,NORAD_CAT_ID,ELEMENT_SET_NO,REV_AT_EPOCH,BSTAR,MEAN_MOTION_DOT,MEAN_MOTION_DDOT
LEMUR-1,2014-033AL,2026-07-23T20:58:59.538144,14.85356761,.0047119,97.7919,353.8760,319.0161,40.7516,0,U,40044,999,65091,.17657E-3,.1493E-4,0
LEMUR-2-GREENBERG,2017-042N,2026-07-22T22:46:34.505472,15.32339048,.00076392,97.3839,24.4400,227.5103,132.5494,0,U,42837,999,49386,.62365481E-3,.19439E-3,0
LEMUR-2-ANDIS,2017-042P,2026-07-23T17:44:51.254304,15.36203727,.0007659,97.3690,25.5454,223.6728,136.3911,0,U,42838,999,49406,.57885E-3,.2039E-3,0
LEMUR-2-MONSON,2017-042Q,2026-07-23T02:26:39.512544,15.28924414,.00058613,97.4103,24.5078,213.0819,147.0055,0,U,42839,999,49365,.61671021E-3,.17282E-3,0
LEMUR-2-FURIAUS,2017-042R,2026-07-22T23:12:36.620928,15.31323478,.00056366,97.3787,22.3327,296.2967,63.7695,0,U,42840,999,49368,.68329855E-3,.20637E-3,0
LEMUR-2-PETERG,2017-042S,2026-07-23T17:53:21.541344,15.35293489,.0003998,97.4004,29.8759,186.4716,173.6477,0,U,42841,999,49404,.64355E-3,.22017E-3,0
LEMUR-2-DEMBITZ,2017-042T,2026-07-23T15:22:13.279872,15.31312059,.0005387,97.3836,26.0520,236.4726,123.6001,0,U,42842,999,49392,.57215E-3,.17253E-3,0
LEMUR-2-ZACHARY,2017-042W,2026-07-23T01:00:44.458272,15.53318099,.00030784,97.3580,36.5204,214.2552,145.8503,0,U,42845,999,49476,.94823677E-3,.60078E-3,0
LEMUR-2-AMANDA-SVANTE,2021-034B,2026-07-23T20:29:31.066656,15.36396885,.0004713,97.5743,284.1606,124.3186,235.8504,0,U,48269,999,28668,.96538E-3,.34311E-3,0
LEMUR-2-SPECIAL-K,2021-034F,2026-07-23T17:05:56.919840,15.78680294,.0005911,97.5612,294.5801,212.3659,147.7245,0,U,48273,999,28742,.20362E-2,.369802E-2,0
LEMUR-2-EMBRIONOVIS,2023-084AQ,2026-07-23T09:01:37.961184,15.38397436,.0008967,97.6330,349.9973,176.9139,183.2162,0,U,56970,999,17324,.37474E-3,.1413E-3,0
LEMUR-2-DEVERILL-M-T,2023-100F,2026-07-23T09:52:04.774368,15.41409931,.0004991,99.4452,253.6815,262.7804,97.2868,0,U,57391,999,16682,.62916E-3,.26252E-3,0
LEMUR-2-BASS,2023-174D,2026-07-23T16:55:34.294656,15.44217432,.0007054,97.3838,289.9560,51.5132,308.6748,0,U,58259,999,15099,.38879E-3,.17794E-3,0
LEMUR-2-JK0903EM1407,2023-174CJ,2026-07-23T05:40:33.702816,15.53397670,.0002921,97.3918,295.7684,357.9462,2.1779,0,U,58336,999,15132,.45247E-3,.28584E-3,0
LEMUR-2-MJR092620,2023-174CN,2026-07-23T05:19:46.920576,15.46089805,.0004519,97.3967,294.9463,359.5789,0.5456,0,U,58340,999,15121,.42714E-3,.20843E-3,0
LEMUR-2-NIMBUS2000,2024-022A,2026-07-23T09:13:13.488096,15.41383552,.0007847,97.4082,54.8710,359.5902,0.5337,0,U,58899,999,13784,.52874E-3,.22052E-3,0
LEMUR-2-VALHALLA,2024-022B,2026-07-23T12:32:19.401792,15.40683975,.0008331,97.4083,54.9723,354.2117,5.9031,0,U,58900,999,13786,.4072E-3,.16565E-3,0
LEMUR-2-CAEL,2024-022E,2026-07-23T19:48:06.765984,15.42082327,.0006189,97.4061,56.2815,336.4214,23.6748,0,U,58903,999,13798,.40928E-3,.17434E-3,0
LEMUR-2-JOHNNYTRUONG,2024-043BA,2026-07-23T08:23:36.458592,15.63096316,.0003596,97.5396,358.3729,67.1091,293.0546,0,U,59146,999,13368,.53296E-3,.48593E-3,0
LEMUR-2-TOMATOKECHUP,2024-149D,2026-07-23T04:32:37.253184,15.36706847,.0003458,97.3787,286.3428,108.0349,252.1272,0,U,60471,999,10769,.3275E-3,.11667E-3,0
LEMUR-2-STELLA,2024-149BT,2026-07-23T16:11:27.341664,15.12506941,.0001471,97.6726,287.3056,123.3279,236.8092,0,U,60533,999,10601,.63017E-3,.10915E-3,0
LEMUR-2-MARHISYAM,2024-149BW,2026-07-23T16:03:11.803104,15.11897127,.0001901,97.6870,287.7849,54.1979,305.9428,0,U,60536,999,10599,.5653E-3,.9618E-4,0
LEMUR-2-AHMED-ASRAR,2024-149DN,2026-07-23T16:00:11.082816,15.13447299,.0001927,97.6993,290.0198,179.8683,180.2548,0,U,60576,999,10608,.67638E-3,.12034E-3,0
LEMUR-2-LLOYD,2024-149DP,2026-07-23T16:45:23.353344,15.09872233,.0004099,97.6740,285.8607,49.3077,310.8508,0,U,60577,999,10590,.64595E-3,.10403E-3,0
LEMUR-2-SQUIRRELCOMM,2024-149DQ,2026-07-23T12:01:07.125024,15.07513592,.0003886,97.6705,285.3042,288.6334,71.4471,0,U,60578,999,10587,.41276E-3,.6206E-4,0
LEMUR-2-SIERRINI,2024-149DR,2026-07-23T12:00:56.329344,15.11643901,.0006023,97.6835,287.2691,68.6196,291.5676,0,U,60579,999,10594,.70551E-3,.11944E-3,0
LEMUR-2-WILSON,2025-009CP,2026-07-23T03:57:47.613024,14.95300842,.00015377,97.7016,281.9988,276.7410,83.3636,0,U,62694,999,8273,.20949158E-3,.2251E-4,0
LEMUR-2-STAR-FOX,2025-009CR,2026-07-23T15:34:49.037952,15.02931306,.0001381,97.6907,285.9951,5.9898,354.1343,0,U,62696,999,8303,.61289E-3,.8175E-4,0
LEMUR-2-ARIANNA,2025-009CU,2026-07-23T04:21:28.574208,15.02927089,.0001755,97.6849,285.2770,20.3119,339.8175,0,U,62699,999,8296,.61112E-3,.8151E-4,0
LEMUR-2-ALISIA,2025-009DB,2026-07-23T05:14:59.504064,15.03260205,.0005036,97.6960,286.1551,108.8576,251.3196,0,U,62706,999,10557,.57394E-3,.772E-4,0
